{
  "type": "FeatureCollection",
  "features": [
    {
      "type": "Feature",
      "properties": {
        "norad_id": 66512,
        "name": "STARLINK-35366",
        "group": "last-30-days",
        "lat": 42.579291985897285,
        "lon": -112.91890986769583,
        "alt_km": 409.28979036754663,
        "timestamp": "2025-12-08T21:31:03.447089+00:00",
        "meta_object_name": "STARLINK-35366",
        "meta_object_id": "2025-263AD",
        "meta_epoch": "2025-12-08T14:00:01.999872",
        "meta_mean_motion": 15.50557534,
        "meta_eccentricity": 0.00015293,
        "meta_inclination": 43,
        "meta_ra_of_asc_node": 149.3437,
        "meta_arg_of_pericenter": 285.03,
        "meta_mean_anomaly": 221.535,
        "meta_ephemeris_type": 0,
        "meta_classification_type": "U",
        "meta_norad_cat_id": 66512,
        "meta_element_set_no": 999,
        "meta_rev_at_epoch": 496,
        "meta_bstar": 0.00054337924,
        "meta_mean_motion_dot": 0.0003164,
        "meta_mean_motion_ddot": 0,
        "tle_line1": "1 66512U 25263AD  25342.58335648  .00031640  00000+0  54338-3 0  9995",
        "tle_line2": "2 66512  43.0000 149.3437 0001529 285.0300 221.5350 15.50557534  4962"
      },
      "geometry": {
        "type": "Point",
        "coordinates": [
          -112.91890986769583,
          42.579291985897285
        ]
      }
    },
    {
      "type": "Feature",
      "properties": {
        "norad_id": 66513,
        "name": "STARLINK-35692",
        "group": "last-30-days",
        "lat": 42.96577779539135,
        "lon": -120.69502499233899,
        "alt_km": 409.22500699754073,
        "timestamp": "2025-12-08T21:31:03.447099+00:00",
        "meta_object_name": "STARLINK-35692",
        "meta_object_id": "2025-263AE",
        "meta_epoch": "2025-12-08T14:00:01.999872",
        "meta_mean_motion": 15.50593785,
        "meta_eccentricity": 0.00013568,
        "meta_inclination": 43,
        "meta_ra_of_asc_node": 149.3583,
        "meta_arg_of_pericenter": 266.5536,
        "meta_mean_anomaly": 234.289,
        "meta_ephemeris_type": 0,
        "meta_classification_type": "U",
        "meta_norad_cat_id": 66513,
        "meta_element_set_no": 999,
        "meta_rev_at_epoch": 496,
        "meta_bstar": -0.0012232825,
        "meta_mean_motion_dot": -0.00071491,
        "meta_mean_motion_ddot": 0,
        "tle_line1": "1 66513U 25263AE  25342.58335648 -.00071491  00000+0 -12233-2 0  9993",
        "tle_line2": "2 66513  43.0000 149.3583 0001356 266.5536 234.2890 15.50593785  4966"
      },
      "geometry": {
        "type": "Point",
        "coordinates": [
          -120.69502499233899,
          42.96577779539135
        ]
      }
    },
    {
      "type": "Feature",
      "properties": {
        "norad_id": 66514,
        "name": "SENTINEL-6B",
        "group": "last-30-days",
        "lat": 2.176535090629144,
        "lon": 171.40074044485752,
        "alt_km": 1328.1055589850903,
        "timestamp": "2025-12-08T21:31:03.447109+00:00",
        "meta_object_name": "SENTINEL-6B",
        "meta_object_id": "2025-264A",
        "meta_epoch": "2025-12-08T14:01:41.053152",
        "meta_mean_motion": 12.84032003,
        "meta_eccentricity": 0.00210395,
        "meta_inclination": 66.0385,
        "meta_ra_of_asc_node": 171.0841,
        "meta_arg_of_pericenter": 268.3306,
        "meta_mean_anomaly": 91.5301,
        "meta_ephemeris_type": 0,
        "meta_classification_type": "U",
        "meta_norad_cat_id": 66514,
        "meta_element_set_no": 999,
        "meta_rev_at_epoch": 275,
        "meta_bstar": 0.00011898365,
        "meta_mean_motion_dot": -3.3e-07,
        "meta_mean_motion_ddot": 0,
        "tle_line1": "1 66514U 25264A   25342.58450293 -.00000033  00000+0  11898-3 0  9999",
        "tle_line2": "2 66514  66.0385 171.0841 0021039 268.3306  91.5301 12.84032003  2753"
      },
      "geometry": {
        "type": "Point",
        "coordinates": [
          171.40074044485752,
          2.176535090629144
        ]
      }
    },
    {
      "type": "Feature",
      "properties": {
        "norad_id": 66516,
        "name": "STARLINK-35924",
        "group": "last-30-days",
        "lat": -39.86220150693252,
        "lon": -39.83538923879942,
        "alt_km": 404.4259906648085,
        "timestamp": "2025-12-08T21:31:03.447122+00:00",
        "meta_object_name": "STARLINK-35924",
        "meta_object_id": "2025-265A",
        "meta_epoch": "2025-12-08T14:00:01.999872",
        "meta_mean_motion": 15.56463649,
        "meta_eccentricity": 0.00012795,
        "meta_inclination": 43.0003,
        "meta_ra_of_asc_node": 78.3649,
        "meta_arg_of_pericenter": 273.4152,
        "meta_mean_anomaly": 20.3255,
        "meta_ephemeris_type": 0,
        "meta_classification_type": "U",
        "meta_norad_cat_id": 66516,
        "meta_element_set_no": 999,
        "meta_rev_at_epoch": 430,
        "meta_bstar": -0.031947672,
        "meta_mean_motion_dot": -0.02069911,
        "meta_mean_motion_ddot": 0,
        "tle_line1": "1 66516U 25265A   25342.58335648 -.02069911  00000+0 -31948-1 0  9997",
        "tle_line2": "2 66516  43.0003  78.3649 0001279 273.4152  20.3255 15.56463649  4309"
      },
      "geometry": {
        "type": "Point",
        "coordinates": [
          -39.83538923879942,
          -39.86220150693252
        ]
      }
    },
    {
      "type": "Feature",
      "properties": {
        "norad_id": 66517,
        "name": "STARLINK-35937",
        "group": "last-30-days",
        "lat": -40.415634792110055,
        "lon": -37.44817288093543,
        "alt_km": 404.3993104717265,
        "timestamp": "2025-12-08T21:31:03.447133+00:00",
        "meta_object_name": "STARLINK-35937",
        "meta_object_id": "2025-265B",
        "meta_epoch": "2025-12-08T14:00:01.999872",
        "meta_mean_motion": 15.56466364,
        "meta_eccentricity": 0.00014723,
        "meta_inclination": 43.0001,
        "meta_ra_of_asc_node": 78.3606,
        "meta_arg_of_pericenter": 281.0793,
        "meta_mean_anomaly": 14.5762,
        "meta_ephemeris_type": 0,
        "meta_classification_type": "U",
        "meta_norad_cat_id": 66517,
        "meta_element_set_no": 999,
        "meta_rev_at_epoch": 432,
        "meta_bstar": -0.032022088,
        "meta_mean_motion_dot": -0.02074524,
        "meta_mean_motion_ddot": 0,
        "tle_line1": "1 66517U 25265B   25342.58335648 -.02074524  00000+0 -32022-1 0  9998",
        "tle_line2": "2 66517  43.0001  78.3606 0001472 281.0793  14.5762 15.56466364  4329"
      },
      "geometry": {
        "type": "Point",
        "coordinates": [
          -37.44817288093543,
          -40.415634792110055
        ]
      }
    },
    {
      "type": "Feature",
      "properties": {
        "norad_id": 66518,
        "name": "STARLINK-35962",
        "group": "last-30-days",
        "lat": -40.92024485674467,
        "lon": -35.01853518567326,
        "alt_km": 404.52413366506335,
        "timestamp": "2025-12-08T21:31:03.447143+00:00",
        "meta_object_name": "STARLINK-35962",
        "meta_object_id": "2025-265C",
        "meta_epoch": "2025-12-08T14:00:01.999872",
        "meta_mean_motion": 15.5646436,
        "meta_eccentricity": 0.00012755,
        "meta_inclination": 43.0001,
        "meta_ra_of_asc_node": 78.3555,
        "meta_arg_of_pericenter": 281.7424,
        "meta_mean_anomaly": 15.8293,
        "meta_ephemeris_type": 0,
        "meta_classification_type": "U",
        "meta_norad_cat_id": 66518,
        "meta_element_set_no": 999,
        "meta_rev_at_epoch": 432,
        "meta_bstar": -0.03195017,
        "meta_mean_motion_dot": -0.02070102,
        "meta_mean_motion_ddot": 0,
        "tle_line1": "1 66518U 25265C   25342.58335648 -.02070102  00000+0 -31950-1 0  9996",
        "tle_line2": "2 66518  43.0001  78.3555 0001275 281.7424  15.8293 15.56464360  4329"
      },
      "geometry": {
        "type": "Point",
        "coordinates": [
          -35.01853518567326,
          -40.92024485674467
        ]
      }
    },
    {
      "type": "Feature",
      "properties": {
        "norad_id": 66519,
        "name": "STARLINK-35931",
        "group": "last-30-days",
        "lat": -41.37335831748972,
        "lon": -32.55170041552063,
        "alt_km": 404.5056204110824,
        "timestamp": "2025-12-08T21:31:03.447153+00:00",
        "meta_object_name": "STARLINK-35931",
        "meta_object_id": "2025-265D",
        "meta_epoch": "2025-12-08T14:00:01.999872",
        "meta_mean_motion": 15.56463228,
        "meta_eccentricity": 0.0001267,
        "meta_inclination": 43.0003,
        "meta_ra_of_asc_node": 78.3505,
        "meta_arg_of_pericenter": 279.4524,
        "meta_mean_anomaly": 20.037,
        "meta_ephemeris_type": 0,
        "meta_classification_type": "U",
        "meta_norad_cat_id": 66519,
        "meta_element_set_no": 999,
        "meta_rev_at_epoch": 432,
        "meta_bstar": -0.031911727,
        "meta_mean_motion_dot": -0.02067797,
        "meta_mean_motion_ddot": 0,
        "tle_line1": "1 66519U 25265D   25342.58335648 -.02067797  00000+0 -31912-1 0  9991",
        "tle_line2": "2 66519  43.0003  78.3505 0001267 279.4524  20.0370 15.56463228  4329"
      },
      "geometry": {
        "type": "Point",
        "coordinates": [
          -32.55170041552063,
          -41.37335831748972
        ]
      }
    }
  ]
}